     2              NAVIGATION DATA                         RINEX VERSION / TYPE
CCRINEXN V1.6.0 UX  CDDIS               24-SEP-16 15:33     PGM / RUN BY / DATE 
IGS BROADCAST EPHEMERIS FILE                                COMMENT             
    0.8382D-08  0.1490D-07 -0.5960D-07 -0.5960D-07          ION ALPHA           
    0.8397D+05  0.1638D+05 -0.1311D+06 -0.6554D+05          ION BETA            
   -0.279396772385D-08-0.976996261670D-14    61440     1916 DELTA-UTC: A0,A1,T,W
    17                                                      LEAP SECONDS        
                                                            END OF HEADER       
 1 16  9 23 10  0  0.0 0.349441543221D-04 0.125055521494D-11 0.000000000000D+00
    0.990000000000D+02-0.394375000000D+02 0.433446626220D-08-0.111550121875D+01
   -0.206567347050D-05 0.591487647034D-02 0.975094735622D-05 0.515370536614D+04
    0.468000000000D+06 0.175088644028D-06 0.199234619525D+01 0.558793544769D-08
    0.965120184673D+00 0.195062500000D+03 0.553580008407D+00-0.790211486909D-08
    0.177864551630D-09 0.100000000000D+01 0.191500000000D+04 0.000000000000D+00
    0.280000000000D+01 0.000000000000D+00 0.512227416039D-08 0.990000000000D+02
    0.460818000000D+06 0.400000000000D+01 0.000000000000D+00 0.000000000000D+00
 2 16  9 23 10  0  0.0 0.549224205315D-03-0.488853402203D-11 0.000000000000D+00
    0.260000000000D+02-0.284062500000D+02 0.501306596235D-08-0.658360232855D+00
   -0.140443444252D-05 0.159410404740D-01 0.888668000698D-05 0.515364188194D+04
    0.468000000000D+06-0.298023223877D-07 0.194425156673D+01 0.260770320892D-06
    0.943921796577D+00 0.203312500000D+03-0.208365278473D+01-0.851214032593D-08
    0.928610105477D-10 0.100000000000D+01 0.191500000000D+04 0.000000000000D+00
    0.200000000000D+01 0.000000000000D+00-0.204890966415D-07 0.260000000000D+02
    0.460800000000D+06 0.000000000000D+00 0.000000000000D+00 0.000000000000D+00
 3 16  9 23 10  0  0.0-0.886917114258D-04-0.204636307899D-11 0.000000000000D+00
    0.980000000000D+02-0.268750000000D+01 0.464555064869D-08-0.204839639173D+01
   -0.149011611938D-07 0.193438958377D-03 0.754930078983D-05 0.515361065292D+04
    0.468000000000D+06-0.875443220139D-07 0.303404151308D+01 0.298023223877D-07
    0.959808814815D+00 0.233906250000D+03 0.354443955328D+00-0.803104881113D-08
    0.842892252703D-10 0.100000000000D+01 0.191500000000D+04 0.000000000000D+00
    0.200000000000D+01 0.000000000000D+00 0.139698386192D-08 0.980000000000D+02
    0.460800000000D+06 0.400000000000D+01 0.000000000000D+00 0.000000000000D+00
 5 16  9 23 10  0  0.0-0.891857780516D-04 0.250111042988D-11 0.000000000000D+00
    0.910000000000D+02 0.440625000000D+01 0.501306595718D-08 0.181884402474D+01
    0.242143869400D-06 0.477024738211D-02 0.752136111260D-05 0.515359942627D+04
    0.468000000000D+06-0.763684511185D-07 0.302055075173D+01 0.316649675369D-07
    0.946834596673D+00 0.230843750000D+03 0.510716520387D+00-0.830070290045D-08
    0.467876631797D-10 0.100000000000D+01 0.191500000000D+04 0.000000000000D+00
    0.200000000000D+01 0.000000000000D+00-0.107102096081D-07 0.910000000000D+02
    0.461280000000D+06 0.400000000000D+01 0.000000000000D+00 0.000000000000D+00
 6 16  9 23 10  0  0.0 0.250163953751D-03 0.511590769747D-11 0.000000000000D+00
    0.880000000000D+02-0.414687500000D+02 0.442804148903D-08-0.678752819339D+00
   -0.211037695408D-05 0.192344072275D-03 0.924058258533D-05 0.515377118111D+04
    0.468000000000D+06 0.409781932831D-07 0.198393748403D+01 0.149011611938D-07
    0.964926408007D+00 0.204593750000D+03-0.151744982529D+01-0.796104604461D-08
    0.137148570278D-09 0.100000000000D+01 0.191500000000D+04 0.000000000000D+00
    0.200000000000D+01 0.000000000000D+00 0.419095158577D-08 0.880000000000D+02
    0.460800000000D+06 0.000000000000D+00 0.000000000000D+00 0.000000000000D+00
 7 16  9 23 10  0  0.0 0.425075180829D-03-0.295585778076D-11 0.000000000000D+00
    0.710000000000D+02 0.752187500000D+02 0.433160900033D-08-0.178603333672D+01
    0.362470746040D-05 0.100323488004D-01 0.866316258907D-05 0.515363419342D+04
    0.468000000000D+06 0.912696123123D-07-0.113223068177D+01-0.100582838059D-06
    0.964829647679D+00 0.211437500000D+03-0.262977669906D+01-0.796711757671D-08
    0.204294223960D-09 0.100000000000D+01 0.191500000000D+04 0.000000000000D+00
    0.200000000000D+01 0.000000000000D+00-0.111758708954D-07 0.710000000000D+02
    0.460800000000D+06 0.400000000000D+01 0.000000000000D+00 0.000000000000D+00
 9 16  9 23 10  0  0.0 0.211685895920D-03 0.727595761418D-11 0.000000000000D+00
    0.480000000000D+02 0.134062500000D+02 0.465447959204D-08 0.100310207744D+01
    0.735744833946D-06 0.549787073396D-03 0.890716910362D-05 0.515377849770D+04
    0.468000000000D+06 0.186264514923D-07-0.221105153378D+01-0.540167093277D-07
    0.954516860807D+00 0.202593750000D+03 0.200613698501D+01-0.812069540242D-08
   -0.242152943785D-09 0.100000000000D+01 0.191500000000D+04 0.000000000000D+00
    0.200000000000D+01 0.000000000000D+00 0.139698386192D-08 0.480000000000D+02
    0.460800000000D+06 0.400000000000D+01 0.000000000000D+00 0.000000000000D+00
10 16  9 23 10  0  0.0-0.100798439235D-03-0.420641299570D-11 0.000000000000D+00
    0.104000000000D+03 0.968750000000D+00 0.470555314803D-08 0.302647324976D+01
    0.111758708954D-06 0.174192630220D-02 0.729225575924D-05 0.515367229080D+04
    0.468000000000D+06 0.372529029846D-08 0.303013757282D+01 0.745058059692D-08
    0.960023120611D+00 0.237656250000D+03-0.285569178357D+01-0.807890794751D-08
    0.707172313708D-10 0.100000000000D+01 0.191500000000D+04 0.000000000000D+00
    0.200000000000D+01 0.000000000000D+00 0.232830643654D-08 0.104000000000D+03
    0.460800000000D+06 0.400000000000D+01 0.000000000000D+00 0.000000000000D+00
11 16  9 23 10  0  0.0-0.664969906211D-03-0.102318153950D-11 0.000000000000D+00
    0.210000000000D+02-0.558125000000D+02 0.585095800160D-08-0.168434133233D+01
   -0.270642340183D-05 0.168289880967D-01 0.923126935959D-05 0.515368144989D+04
    0.468000000000D+06 0.162050127983D-06 0.160685528982D+01 0.448897480965D-06
    0.897698626488D+00 0.164531250000D+03 0.157620902567D+01-0.860571560545D-08
    0.314298806093D-10 0.100000000000D+01 0.191500000000D+04 0.000000000000D+00
    0.200000000000D+01 0.000000000000D+00-0.121071934700D-07 0.210000000000D+02
    0.465960000000D+06 0.400000000000D+01 0.000000000000D+00 0.000000000000D+00
12 16  9 23 10  0  0.0 0.388849992305D-03 0.341060513165D-12 0.000000000000D+00
    0.690000000000D+02 0.137500000000D+02 0.411017120513D-08-0.238441326562D+01
    0.746920704842D-06 0.603182928171D-02 0.456906855106D-05 0.515365882873D+04
    0.468000000000D+06 0.184401869774D-06-0.536835212541D-01-0.800937414169D-07
    0.990370137554D+00 0.305718750000D+03 0.786898810134D+00-0.801354808216D-08
    0.112504686272D-09 0.100000000000D+01 0.191500000000D+04 0.000000000000D+00
    0.200000000000D+01 0.000000000000D+00-0.125728547573D-07 0.690000000000D+02
    0.460800000000D+06 0.400000000000D+01 0.000000000000D+00 0.000000000000D+00
13 16  9 23 10  0  0.0-0.453554093838D-04-0.216004991671D-11 0.000000000000D+00
    0.860000000000D+02 0.130312500000D+02 0.429446459597D-08-0.802418249724D+00
    0.618398189545D-06 0.401990045793D-02 0.906921923161D-05 0.515368714523D+04
    0.468000000000D+06-0.856816768646D-07-0.208850630951D+01 0.204890966415D-07
    0.970722217334D+00 0.212125000000D+03 0.195358651429D+01-0.796818904991D-08
   -0.179293182566D-09 0.100000000000D+01 0.191500000000D+04 0.000000000000D+00
    0.200000000000D+01 0.000000000000D+00-0.111758708954D-07 0.860000000000D+02
    0.466920000000D+06 0.400000000000D+01 0.000000000000D+00 0.000000000000D+00
14 16  9 23 10  0  0.0-0.365027226508D-04-0.193267624127D-11 0.000000000000D+00
    0.270000000000D+02 0.214062500000D+02 0.448161524869D-08 0.550778022893D+00
    0.992789864540D-06 0.876345077995D-02 0.903941690922D-05 0.515358570862D+04
    0.468000000000D+06-0.111758708954D-06-0.212632113118D+01 0.149011611938D-07
    0.963244495480D+00 0.207093750000D+03-0.194557692369D+01-0.809140846821D-08
   -0.292869342041D-09 0.100000000000D+01 0.191500000000D+04 0.000000000000D+00
    0.200000000000D+01 0.000000000000D+00-0.931322574616D-08 0.270000000000D+02
    0.467160000000D+06 0.400000000000D+01 0.000000000000D+00 0.000000000000D+00
15 16  9 23 10  0  0.0-0.328334048390D-03-0.136424205266D-11 0.000000000000D+00
    0.350000000000D+02 0.650000000000D+01 0.526414784432D-08 0.266424304316D+00
    0.437721610069D-06 0.848350592423D-02 0.805407762528D-05 0.515367050171D+04
    0.468000000000D+06 0.465661287308D-07-0.226656460818D+01 0.149011611938D-06
    0.930245766893D+00 0.207281250000D+03 0.504544662116D+00-0.852392648432D-08
   -0.224295057075D-09 0.100000000000D+01 0.191500000000D+04 0.000000000000D+00
    0.200000000000D+01 0.000000000000D+00-0.107102096081D-07 0.350000000000D+02
    0.460800000000D+06 0.400000000000D+01 0.000000000000D+00 0.000000000000D+00
18 16  9 23 10  0  0.0 0.560427550226D-03 0.363797880709D-11 0.000000000000D+00
    0.380000000000D+02-0.875000000000D+00 0.532057876632D-08 0.256952535882D+01
   -0.115483999252D-06 0.172616600758D-01 0.659003853798D-05 0.515371210861D+04
    0.468000000000D+06 0.163912773132D-06 0.299688756465D+01-0.147148966789D-06
    0.925516581378D+00 0.228687500000D+03-0.185866153299D+01-0.816498296146D-08
    0.485734518507D-10 0.100000000000D+01 0.191500000000D+04 0.000000000000D+00
    0.200000000000D+01 0.000000000000D+00-0.111758708954D-07 0.380000000000D+02
    0.460800000000D+06 0.400000000000D+01 0.000000000000D+00 0.000000000000D+00
